COMMENT,ORIGINATOR,NORAD_CAT_ID,OBJECT_NAME,OBJECT_TYPE,CLASSIFICATION_TYPE,INTLDES,EPOCH,EPOCH_MICROSECONDS,MEAN_MOTION,ECCENTRICITY,INCLINATION,RA_OF_ASC_NODE,ARG_OF_PERICENTER,MEAN_ANOMALY,EPHEMERIS_TYPE,ELEMENT_SET_NO,REV_AT_EPOCH,BSTAR,MEAN_MOTION_DOT,MEAN_MOTION_DDOT,FILE,TLE_LINE0,TLE_LINE1,TLE_LINE2,OBJECT_ID,OBJECT_NUMBER,SEMIMAJOR_AXIS,PERIOD,APOGEE,PERIGEE,DECAYED
GENERATED VIA SPACETRACK.ORG API,18 SPCS,57309,STARLINK-30163,PAYLOAD,U,23096V,2024-07-13 11:41:17,241504,15.02528926,0.0001336,43.0011,265.884,256.57,103.4994,0,999,5579,-0.00026061,-0.00003721,0,4376101,0 STARLINK-30163,1 57309U 23096V   24195.48700511 -.00003721  00000-0 -26061-3 0  9994,2 57309  43.0011 265.8840 0001336 256.5700 103.4994 15.02528926 55792,2023-096V,57309,6937.238,95.838,560.030,558.176,1
GENERATED VIA SPACETRACK.ORG API,18 SPCS,57309,STARLINK-30163,PAYLOAD,U,23096V,2024-07-13 13:17:01,649184,15.02528694,0.0001302,43.0021,265.5229,256.2273,103.8425,0,999,5583,-0.00011203,-0.00001716,0,4376497,0 STARLINK-30163,1 57309U 23096V   24195.55349131 -.00001716  00000-0 -11203-3 0  9993,2 57309  43.0021 265.5229 0001302 256.2273 103.8425 15.02528694 55836,2023-096V,57309,6937.239,95.838,560.007,558.201,1
GENERATED VIA SPACETRACK.ORG API,18 SPCS,57309,STARLINK-30163,PAYLOAD,U,23096V,2024-07-13 21:15:39,896352,15.02533474,0.0001229,43.0039,263.7187,271.7991,88.271,0,999,5588,-0.000094731,-0.00001483,0,4377096,0 STARLINK-30163,1 57309U 23096V   24195.88587843 -.00001483  00000-0 -94731-4 0  9992,2 57309  43.0039 263.7187 0001229 271.7991  88.2710 15.02533474 55885,2023-096V,57309,6937.224,95.838,559.942,558.237,1
GENERATED VIA SPACETRACK.ORG API,18 SPCS,57309,STARLINK-30163,PAYLOAD,U,23096V,2024-07-14 11:37:12,752832,15.02540258,0.000109,43.0028,260.4671,267.4673,92.6044,0,999,5594,-0.00015333,-0.00002274,0,4378017,0 STARLINK-30163,1 57309U 23096V   24196.48417538 -.00002274  00000-0 -15333-3 0  9991,2 57309  43.0028 260.4671 0001090 267.4673  92.6044 15.02540258 55944,2023-096V,57309,6937.203,95.838,559.825,558.312,1
GENERATED VIA SPACETRACK.ORG API,18 SPCS,57309,STARLINK-30163,PAYLOAD,U,23096V,2024-07-14 11:37:12,752832,15.02540258,0.000109,43.0028,260.4671,267.4673,92.6044,0,999,5597,-0.00015333,-0.00002274,0,4378423,0 STARLINK-30163,1 57309U 23096V   24196.48417538 -.00002274  00000-0 -15333-3 0  9991,2 57309  43.0028 260.4671 0001090 267.4673  92.6044 15.02540258 55977,2023-096V,57309,6937.203,95.838,559.825,558.312,1
GENERATED VIA SPACETRACK.ORG API,18 SPCS,57309,STARLINK-30163,PAYLOAD,U,23096V,2024-07-14 21:11:33,982944,15.02564022,0.000115,43.0038,258.3001,259.7297,100.3416,0,999,5600,-0.00049672,-0.00006912,0,4378632,0 STARLINK-30163,1 57309U 23096V   24196.88303221 -.00006912  00000-0 -49672-3 0  9994,2 57309  43.0038 258.3001 0001150 259.7297 100.3416 15.02564022 56004,2023-096V,57309,6937.130,95.836,559.793,558.198,1
GENERATED VIA SPACETRACK.ORG API,18 SPCS,57309,STARLINK-30163,PAYLOAD,U,23096V,2024-07-15 13:08:52,124928,15.02526627,0.0001091,43.0023,254.6873,267.323,92.7487,0,999,5613,0.00018243,0.00002261,0,4380266,0 STARLINK-30163,1 57309U 23096V   24197.54782552  .00002261  00000-0  18243-3 0  9997,2 57309  43.0023 254.6873 0001091 267.3230  92.7487 15.02526627 56135,2023-096V,57309,6937.245,95.839,559.867,558.354,1
GENERATED VIA SPACETRACK.ORG API,18 SPCS,57309,STARLINK-30163,PAYLOAD,U,23096V,2024-07-15 13:08:52,124928,15.02526627,0.0001091,43.0023,254.6873,267.323,92.7487,0,999,5610,0.00018243,0.00002261,0,4380514,0 STARLINK-30163,1 57309U 23096V   24197.54782552  .00002261  00000-0  18243-3 0  9997,2 57309  43.0023 254.6873 0001091 267.3230  92.7487 15.02526627 56102,2023-096V,57309,6937.245,95.839,559.867,558.354,1
GENERATED VIA SPACETRACK.ORG API,18 SPCS,57309,STARLINK-30163,PAYLOAD,U,23096V,2024-07-15 21:07:30,548352,15.0252922,0.0001102,43.0025,252.8813,266.9544,93.1173,0,999,5618,0.00016556,0.00002033,0,4380878,0 STARLINK-30163,1 57309U 23096V   24197.88021468  .00002033  00000-0  16556-3 0  9998,2 57309  43.0025 252.8813 0001102 266.9544  93.1173 15.02529220 56181,2023-096V,57309,6937.237,95.838,559.867,558.338,1
GENERATED VIA SPACETRACK.ORG API,18 SPCS,57309,STARLINK-30163,PAYLOAD,U,23096V,2024-07-16 08:17:36,274272,15.02533569,0.0001143,43.002,250.3522,266.4345,93.6367,0,999,5625,0.00016304,0.00001999,0,4382085,0 STARLINK-30163,1 57309U 23096V   24198.34555873  .00001999  00000-0  16304-3 0  9993,2 57309  43.0020 250.3522 0001143 266.4345  93.6367 15.02533569 56254,2023-096V,57309,6937.224,95.838,559.882,558.296,1
GENERATED VIA SPACETRACK.ORG API,18 SPCS,57309,STARLINK-30163,PAYLOAD,U,23096V,2024-07-17 03:26:20,243040,15.02539117,0.0001227,43.002,246.0176,267.0252,93.045,0,999,5634,0.00012968,0.00001549,0,4382732,0 STARLINK-30163,1 57309U 23096V   24199.14328985  .00001549  00000-0  12968-3 0  9997,2 57309  43.0020 246.0176 0001227 267.0252  93.0450 15.02539117 56340,2023-096V,57309,6937.207,95.838,559.923,558.221,1
GENERATED VIA SPACETRACK.ORG API,18 SPCS,57309,STARLINK-30163,PAYLOAD,U,23096V,2024-07-17 09:49:15,328416,15.02536001,0.0001165,43.0021,244.5722,266.722,93.3489,0,999,5641,0.000092615,0.00001048,0,4383859,0 STARLINK-30163,1 57309U 23096V   24199.40920519  .00001048  00000-0  92615-4 0  9999,2 57309  43.0021 244.5722 0001165 266.7220  93.3489 15.02536001 56415,2023-096V,57309,6937.217,95.838,559.890,558.273,1
GENERATED VIA SPACETRACK.ORG API,18 SPCS,57309,STARLINK-30163,PAYLOAD,U,23096V,2024-07-17 09:49:15,328416,15.02536001,0.0001165,43.0021,244.5722,266.722,93.3489,0,999,5638,0.000092615,0.00001048,0,4384612,0 STARLINK-30163,1 57309U 23096V   24199.40920519  .00001048  00000-0  92615-4 0  9999,2 57309  43.0021 244.5722 0001165 266.7220  93.3489 15.02536001 56381,2023-096V,57309,6937.217,95.838,559.890,558.273,1
GENERATED VIA SPACETRACK.ORG API,18 SPCS,57309,STARLINK-30163,PAYLOAD,U,23096V,2024-07-18 11:20:54,483648,15.02536359,0.0001249,43.0018,238.7929,272.6295,87.4404,0,999,5654,0.000069207,0.00000731,0,4385175,0 STARLINK-30163,1 57309U 23096V   24200.47285282  .00000731  00000-0  69207-4 0  9999,2 57309  43.0018 238.7929 0001249 272.6295  87.4404 15.02536359 56547,2023-096V,57309,6937.215,95.838,559.947,558.214,1
GENERATED VIA SPACETRACK.ORG API,18 SPCS,57309,STARLINK-30163,PAYLOAD,U,23096V,2024-07-18 11:20:54,483648,15.02536359,0.0001249,43.0018,238.7929,272.6295,87.4404,0,999,5657,0.000069207,0.00000731,0,4385553,0 STARLINK-30163,1 57309U 23096V   24200.47285282  .00000731  00000-0  69207-4 0  9999,2 57309  43.0018 238.7929 0001249 272.6295  87.4404 15.02536359 56570,2023-096V,57309,6937.215,95.838,559.947,558.214,1
GENERATED VIA SPACETRACK.ORG API,18 SPCS,57309,STARLINK-30163,PAYLOAD,U,23096V,2024-07-19 09:41:06,364896,15.02529481,0.0001357,43.0014,233.7347,272.9099,87.1588,0,999,5668,0.00012045,0.00001424,0,4386811,0 STARLINK-30163,1 57309U 23096V   24201.40354589  .00001424  00000-0  12045-3 0  9997,2 57309  43.0014 233.7347 0001357 272.9099  87.1588 15.02529481 56680,2023-096V,57309,6937.237,95.838,560.043,558.160,1
GENERATED VIA SPACETRACK.ORG API,18 SPCS,57309,STARLINK-30163,PAYLOAD,U,23096V,2024-07-19 09:41:06,364896,15.02529481,0.0001357,43.0014,233.7347,272.9099,87.1588,0,999,5671,0.00012045,0.00001424,0,4387281,0 STARLINK-30163,1 57309U 23096V   24201.40354589  .00001424  00000-0  12045-3 0  9997,2 57309  43.0014 233.7347 0001357 272.9099  87.1588 15.02529481 56714,2023-096V,57309,6937.237,95.838,560.043,558.160,1
GENERATED VIA SPACETRACK.ORG API,18 SPCS,57309,STARLINK-30163,PAYLOAD,U,23096V,2024-07-19 19:15:28,281024,15.02533441,0.0001298,43.002,231.5684,269.7779,90.2914,0,999,5677,0.00012089,0.0000143,0,4387890,0 STARLINK-30163,1 57309U 23096V   24201.80241066  .00001430  00000-0  12089-3 0  9991,2 57309  43.0020 231.5684 0001298 269.7779  90.2914 15.02533441 56779,2023-096V,57309,6937.224,95.838,559.990,558.189,1
GENERATED VIA SPACETRACK.ORG API,18 SPCS,57309,STARLINK-30163,PAYLOAD,U,23096V,2024-07-20 09:37:01,610112,15.02535182,0.0001315,43.002,228.3175,268.1628,91.9064,0,999,5686,0.0000081938,-0.00000093,0,4389230,0 STARLINK-30163,1 57309U 23096V   24202.40071308 -.00000093  00000-0  81938-5 0  9994,2 57309  43.0020 228.3175 0001315 268.1628  91.9064 15.02535182 56862,2023-096V,57309,6937.219,95.838,559.996,558.172,1
GENERATED VIA SPACETRACK.ORG API,18 SPCS,57309,STARLINK-30163,PAYLOAD,U,23096V,2024-07-20 19:11:24,436896,15.02534116,0.0001374,43.0012,226.1475,266.5197,93.5488,0,999,5689,-0.00029761,-0.00004221,0,4389471,0 STARLINK-30163,1 57309U 23096V   24202.79958839 -.00004221  00000-0 -29761-3 0  9991,2 57309  43.0012 226.1475 0001374 266.5197  93.5488 15.02534116 56897,2023-096V,57309,6937.222,95.838,560.041,558.134,1
GENERATED VIA SPACETRACK.ORG API,18 SPCS,57309,STARLINK-30163,PAYLOAD,U,23096V,2024-07-21 03:10:03,611136,15.02517776,0.000108,43.0007,224.3421,264.374,95.6979,0,999,5694,-0.000018565,-0.00000454,0,4390045,0 STARLINK-30163,1 57309U 23096V   24203.13198624 -.00000454  00000-0 -18565-4 0  9993,2 57309  43.0007 224.3421 0001080 264.3740  95.6979 15.02517776 56943,2023-096V,57309,6937.273,95.839,559.887,558.388,1
GENERATED VIA SPACETRACK.ORG API,18 SPCS,57309,STARLINK-30163,PAYLOAD,U,23096V,2024-07-21 11:08:42,156384,15.02520019,0.0001166,43.0012,222.5366,263.949,96.1219,0,999,5702,0.0000070112,-0.00000109,0,4391052,0 STARLINK-30163,1 57309U 23096V   24203.46437681 -.00000109  00000-0  70112-5 0  9991,2 57309  43.0012 222.5366 0001166 263.9490  96.1219 15.02520019 57026,2023-096V,57309,6937.266,95.839,559.940,558.322,1
GENERATED VIA SPACETRACK.ORG API,18 SPCS,57309,STARLINK-30163,PAYLOAD,U,23096V,2024-07-22 03:05:58,542720,15.02531992,0.0001239,43.0023,218.9241,264.022,96.0482,0,999,5709,0.00010877,0.00001266,0,4391746,0 STARLINK-30163,1 57309U 23096V   24204.12914980  .00001266  00000-0  10877-3 0  9991,2 57309  43.0023 218.9241 0001239 264.0220  96.0482 15.02531992 57093,2023-096V,57309,6937.229,95.838,559.953,558.234,1
